structureRecordId,groupStructureId,structureId,parentRecordId,name,nameNative,code,description,enrollableCategory,schoolType,photo,recordType,tags,statistic,countStructure,isPromoted,isFeatured,isPublic,isOpen,startDate,endDate,extra,createdAt,updatedAt,mpath,qty,phone,structurePath,schoolId,campusId,archiveStatus,status,share,responsibleBy
aa3d6ef7-a4c6-4935-b580-b09012c3a983,8159031c-e448-45ab-9d17-6c8a23301146,21e6d136-3f73-4570-b08a-857297effdc4,,1- Soft Skills,1- ជំនាញទន់,Soft Skill,"",,,,,[],"{""countStudent"": 0, ""countSubject"": 0, ""countTeacher"": 0}",,f,f,f,t,,,[],2024-05-02 03:53:07.773999+00,2024-06-24 12:58:01.591892+00,"",,,aa3d6ef7-a4c6-4935-b580-b09012c3a983,0170ebdf-f7b9-4e6c-b803-2c1565677699,93446d8c-854b-4512-b1ec-3be394c66390,0,progress,,[]
4f2798a8-b30d-4752-9668-404058acc5f1,8159031c-e448-45ab-9d17-6c8a23301146,19808703-9a34-4fbe-8434-66621d9a2465,259a862b-eb43-4786-a443-6ef170e49fe4,Limit seat event,Limit seat event,Limit seat event,"",,,,,[],"{""countStudent"": 0, ""countSubject"": 0, ""countTeacher"": 0}",,f,f,t,t,2024-05-30 17:00:00+00,2024-06-02 16:59:59+00,[],2024-05-30 04:58:58.443072+00,2024-05-30 06:20:53.135228+00,"",1,,259a862b-eb43-4786-a443-6ef170e49fe4#4f2798a8-b30d-4752-9668-404058acc5f1,0170ebdf-f7b9-4e6c-b803-2c1565677699,93446d8c-854b-4512-b1ec-3be394c66390,0,progress,"{""token"": ""f0be7f3fca32424d9b8f61f168023fab"", ""password"": null, ""expire_in"": null}",
7c6a7cae-6bca-452b-8148-14f70429af1a,a6e337a1-e806-44b0-97b7-f2fdb75cb4d5,ac079ba4-c5af-4a4d-bdcf-61e23eac453f,,3- Networking,3- Networking,Networking,"",,,,,[],"{""countStudent"": 0, ""countSubject"": 0, ""countTeacher"": 0}",,f,f,f,t,,,[],2024-05-02 09:24:16.710816+00,2024-05-02 09:24:16.717344+00,"",,,7c6a7cae-6bca-452b-8148-14f70429af1a,0170ebdf-f7b9-4e6c-b803-2c1565677699,77813d4e-efd9-4015-9030-f221c7355ecc,0,progress,,
cd14abad-af82-4497-b46f-9278443605bc,8159031c-e448-45ab-9d17-6c8a23301146,19808703-9a34-4fbe-8434-66621d9a2465,901fb398-0f8b-4cfb-a91b-1d0be0f714f8,Sala event,Sala event,Sala event,"",,,,,[],"{""countStudent"": 0, ""countSubject"": 0, ""countTeacher"": 0}",,f,f,t,t,2024-06-06 17:00:00+00,2024-06-08 16:59:59+00,[],2024-06-06 04:28:46.620538+00,2024-06-06 04:28:46.639956+00,"",,,901fb398-0f8b-4cfb-a91b-1d0be0f714f8#cd14abad-af82-4497-b46f-9278443605bc,0170ebdf-f7b9-4e6c-b803-2c1565677699,93446d8c-854b-4512-b1ec-3be394c66390,0,progress,,
a4f1084b-62c6-41cc-ad54-fdf16c7e8eba,8159031c-e448-45ab-9d17-6c8a23301146,19808703-9a34-4fbe-8434-66621d9a2465,901fb398-0f8b-4cfb-a91b-1d0be0f714f8,Job opportunity,Job opportunity,Job opportunity,"",,,,,[],"{""countStudent"": 0, ""countSubject"": 0, ""countTeacher"": 0}",,f,f,t,t,2024-06-19 17:00:00+00,2024-06-20 16:59:59+00,[],2024-06-19 07:53:08.687387+00,2024-06-19 07:53:08.693829+00,"",,,901fb398-0f8b-4cfb-a91b-1d0be0f714f8#a4f1084b-62c6-41cc-ad54-fdf16c7e8eba,0170ebdf-f7b9-4e6c-b803-2c1565677699,93446d8c-854b-4512-b1ec-3be394c66390,0,progress,,
965c5700-43c1-488c-b888-895bbf075a40,8159031c-e448-45ab-9d17-6c8a23301146,19808703-9a34-4fbe-8434-66621d9a2465,901fb398-0f8b-4cfb-a91b-1d0be0f714f8,test,test,test,"",,,,,[],"{""countStudent"": 0, ""countSubject"": 0, ""countTeacher"": 0}",,f,f,t,t,2024-06-19 17:00:00+00,2024-06-20 16:59:59+00,[],2024-06-19 09:30:23.125961+00,2024-06-19 09:30:23.135737+00,"",,,901fb398-0f8b-4cfb-a91b-1d0be0f714f8#965c5700-43c1-488c-b888-895bbf075a40,0170ebdf-f7b9-4e6c-b803-2c1565677699,93446d8c-854b-4512-b1ec-3be394c66390,0,progress,,
94f057df-a0d4-47fe-bcf6-8050fabe5d21,8159031c-e448-45ab-9d17-6c8a23301146,19808703-9a34-4fbe-8434-66621d9a2465,259a862b-eb43-4786-a443-6ef170e49fe4,ដាតាបេស,Class Database,Class Database,"",,,,,[],"{""countStudent"": 0, ""countSubject"": 0, ""countTeacher"": 0}",,f,f,t,t,2024-05-30 17:00:00+00,2024-06-03 16:59:59+00,[],2024-05-30 05:35:59.040204+00,2024-05-30 05:35:59.060096+00,"",1,,259a862b-eb43-4786-a443-6ef170e49fe4#94f057df-a0d4-47fe-bcf6-8050fabe5d21,0170ebdf-f7b9-4e6c-b803-2c1565677699,93446d8c-854b-4512-b1ec-3be394c66390,0,progress,,
b2f215ff-de5d-4f9f-a6dc-8b772f1516e9,38b0af37-0f00-47f8-98cc-43a7cb8aefd7,929631ac-cf0e-4b3a-821b-af029dcdfd91,,1- Soft Skills ,Soft Skills ,SoftSkills ,"",,,,,[],"{""countStudent"": 0, ""countSubject"": 0, ""countTeacher"": 0}",,f,f,t,t,,,[],2024-05-08 08:01:14.487918+00,2024-05-08 08:01:14.511191+00,"",,,b2f215ff-de5d-4f9f-a6dc-8b772f1516e9,0170ebdf-f7b9-4e6c-b803-2c1565677699,74d51238-b94e-4926-862f-3e86bd6271aa,0,progress,,
d0cd4e8a-1e88-474c-bc95-8c3ef7244efc,a6e337a1-e806-44b0-97b7-f2fdb75cb4d5,ac079ba4-c5af-4a4d-bdcf-61e23eac453f,,4- Social Event,4- Social Event,Social Event,"",,,,,[],"{""countStudent"": 0, ""countSubject"": 0, ""countTeacher"": 0}",,f,f,f,t,,,[],2024-05-02 09:24:46.446308+00,2024-05-02 09:24:46.45504+00,"",,,d0cd4e8a-1e88-474c-bc95-8c3ef7244efc,0170ebdf-f7b9-4e6c-b803-2c1565677699,77813d4e-efd9-4015-9030-f221c7355ecc,0,progress,,
2290f86d-902b-4262-a07a-02327e0c05c8,8159031c-e448-45ab-9d17-6c8a23301146,19808703-9a34-4fbe-8434-66621d9a2465,ac38296f-1a41-45a1-8d8a-345e979913ef,Email-notification upload file, upload file, upload file,"",,,,,[],"{""countStudent"": 0, ""countSubject"": 0, ""countTeacher"": 0}",,f,f,t,t,2024-06-22 17:00:00+00,2024-06-30 16:59:59+00,[],2024-06-22 11:12:58.195138+00,2024-06-22 11:12:58.202336+00,"",,,ac38296f-1a41-45a1-8d8a-345e979913ef#2290f86d-902b-4262-a07a-02327e0c05c8,0170ebdf-f7b9-4e6c-b803-2c1565677699,93446d8c-854b-4512-b1ec-3be394c66390,0,progress,,"[""sophorn@sala.co""]"
f6c3ac80-5f0c-4611-94ca-266e9810bb85,b6a00c1d-1dac-4606-b812-f05ba47a7a48,faec82a5-1439-4d07-a27d-0e46a6ababb7,,AirAsia Cambodia,AirAsia Cambodia,AirAsia Cambodia,"",,,,,[],"{""countStudent"": 0, ""countSubject"": 0, ""countTeacher"": 0}",,f,f,f,t,,,[],2024-04-23 09:53:54.241149+00,2024-04-23 09:53:54.25596+00,"",,,f6c3ac80-5f0c-4611-94ca-266e9810bb85,0170ebdf-f7b9-4e6c-b803-2c1565677699,93446d8c-854b-4512-b1ec-3be394c66390,0,progress,,
48011317-c754-4984-a2dd-b823ecac5461,8159031c-e448-45ab-9d17-6c8a23301146,19808703-9a34-4fbe-8434-66621d9a2465,4cee432d-37d6-4a1c-a10e-8c458ab14d8e,Testing1,Testing1,Testing1,"",,,,,[],"{""countStudent"": 0, ""countSubject"": 0, ""countTeacher"": 0}",,f,f,t,t,2024-06-20 17:00:00+00,2024-06-21 16:59:59+00,[],2024-06-20 06:31:46.098759+00,2024-06-20 06:31:46.10674+00,"",,,4cee432d-37d6-4a1c-a10e-8c458ab14d8e#48011317-c754-4984-a2dd-b823ecac5461,0170ebdf-f7b9-4e6c-b803-2c1565677699,93446d8c-854b-4512-b1ec-3be394c66390,0,progress,,
e9b694dd-dea8-4ae4-a7ef-ebd36b9a15d2,8159031c-e448-45ab-9d17-6c8a23301146,19808703-9a34-4fbe-8434-66621d9a2465,259a862b-eb43-4786-a443-6ef170e49fe4,Marketing session,Marketing session,Marketing session,"",,,,,[],"{""countStudent"": 0, ""countSubject"": 0, ""countTeacher"": 0}",,f,f,t,t,2024-05-31 17:00:00+00,2024-06-02 16:59:59+00,[],2024-05-30 05:45:36.126584+00,2024-05-30 06:52:58.942565+00,"",1,,259a862b-eb43-4786-a443-6ef170e49fe4#e9b694dd-dea8-4ae4-a7ef-ebd36b9a15d2,0170ebdf-f7b9-4e6c-b803-2c1565677699,93446d8c-854b-4512-b1ec-3be394c66390,0,progress,"{""token"": ""65585105d71247e9b70766515cab32e9"", ""password"": null, ""expire_in"": null}",
c45cbd0f-d2c5-438d-92c2-3a1195ba648c,a6e337a1-e806-44b0-97b7-f2fdb75cb4d5,ac079ba4-c5af-4a4d-bdcf-61e23eac453f,,5- Other,5- Other,Other,"",,,,,[],"{""countStudent"": 0, ""countSubject"": 0, ""countTeacher"": 0}",,f,f,f,t,,,[],2024-05-02 09:25:01.885203+00,2024-05-02 09:25:01.915581+00,"",,,c45cbd0f-d2c5-438d-92c2-3a1195ba648c,0170ebdf-f7b9-4e6c-b803-2c1565677699,77813d4e-efd9-4015-9030-f221c7355ecc,0,progress,,
ac38296f-1a41-45a1-8d8a-345e979913ef,8159031c-e448-45ab-9d17-6c8a23301146,21e6d136-3f73-4570-b08a-857297effdc4,,Testing2,Testing2,Testing2,"",,,,,[],"{""countStudent"": 0, ""countSubject"": 0, ""countTeacher"": 0}",,f,f,t,t,,,[],2024-06-20 06:32:40.619568+00,2024-06-20 06:32:40.629295+00,"",,,ac38296f-1a41-45a1-8d8a-345e979913ef,0170ebdf-f7b9-4e6c-b803-2c1565677699,93446d8c-854b-4512-b1ec-3be394c66390,0,progress,,
ca1fe4cc-8d2a-4a69-85dd-4f39b0c6adde,8159031c-e448-45ab-9d17-6c8a23301146,19808703-9a34-4fbe-8434-66621d9a2465,aa3d6ef7-a4c6-4935-b580-b09012c3a983,Techpreneur Bootcamp update,Join us at the Techpreneur,Techpreneur,"<p><strong><span style=""font-size:14px"">Get ready to bring your ideas to life! Don&#39;t miss out on our Techpreneur Bootcamp - where innovation meets action!</span></strong></p>

<p><span style=""font-size:14px"">Check out the post below or click this link for more info : <a href=""https://drive.google.com/file/d/15pqJRIr1vlqUWikgDU0NvHRIELubjk57/view?usp=sharing&amp;fbclid=IwZXh0bgNhZW0CMTAAAR2zaV72d1Ej2GvFjHRqEshCu_uEEhHLyVJsAYBQjJhlwYXKPrkEEOo8TcQ_aem_AZMckcc9D9_oMJVyVg1KTvGS6zTme0pQ7_DaLY6d01_B_xRQg7eaBotQ4dwsTnB9B-KCd26cHPOHe_kInbbuAI_P"" target=""_blank"">https://drive.google.com/.../15pqJRIr1vlqUWikgDU0.../view...</a></span></p>

<p><span style=""font-size:14px"">Score your spot in our exclusive Techpreneur Bootcamp and unlock the keys to full-stack development! Dive into the world of entrepreneurship and hands-on product creation with us.Score your spot in our exclusive Techpreneur Bootcamp and unlock the keys to full-stack development! Dive into the world of entrepreneurship and hands-on product creation with us.</span></p>

<p><span style=""font-size:14px"">Apply through this link: <a href=""https://ee-eu.kobotoolbox.org/x/pY3ZX1xJ"">https://ee-eu.kobotoolbox.org/x/pY3ZX1xJ</a>&nbsp;</span></p>

<p><span style=""font-size:14px"">Level up your tech game and pave the way to becoming a Techpreneur. Let&#39;s shape the digital landscape of Cambodia together! </span></p>

<p><span style=""font-size:14px"">The Techpreneur Bootcamp program is an initiative co-organized by DICHI ACADEMY and Elix Organization under the USAID Digital Workforce Development project.</span></p>

<p><span style=""font-size:14px"">Hurry hurry &hellip; Deadline : May 31, 2024 @ 5 PM&nbsp;</span></p>

<p><span style=""font-size:14px"">Facebook: <a href=""https://www.facebook.com/DigitalWorkforceDevelopment "">https://www.facebook.com/DigitalWorkforceDevelopment&nbsp;</a><br />
LinkedIn: <a href=""http://linkedin.com/company/usaid-digital-workforce-development"">linkedin.com/company/usaid-digital-workforce-development</a></span></p>

<p><span style=""font-size:14px""><a href=""https://www.facebook.com/hashtag/techpreneur?__eep__=6&amp;__cft__[0]=AZXLCR80iz-brkKtWM19bs2KVsIPE2AMibRZc27ATY3U1QbmszZ2uUMHNwkEBGtbMfP7YhOX-VHJsqwdaBV53DjLl7-49qUDanTVjvWeThLuuPLxArs2WXS4GYcJSBwwrnKy2d9AsPYQpOxnx_BwMxWk6R1pEcTSL6NEVqGpTTgZCcuk-4cY5xdOnnNxoYB0nrHAKpKZgCAmK_iucjU78IDi&amp;__tn__=*NK-R"">#Techpreneur</a> <a href=""https://www.facebook.com/hashtag/innovateandcreate?__eep__=6&amp;__cft__[0]=AZXLCR80iz-brkKtWM19bs2KVsIPE2AMibRZc27ATY3U1QbmszZ2uUMHNwkEBGtbMfP7YhOX-VHJsqwdaBV53DjLl7-49qUDanTVjvWeThLuuPLxArs2WXS4GYcJSBwwrnKy2d9AsPYQpOxnx_BwMxWk6R1pEcTSL6NEVqGpTTgZCcuk-4cY5xdOnnNxoYB0nrHAKpKZgCAmK_iucjU78IDi&amp;__tn__=*NK-R"">#InnovateAndCreate</a> <a href=""https://www.facebook.com/hashtag/digitalcambodia?__eep__=6&amp;__cft__[0]=AZXLCR80iz-brkKtWM19bs2KVsIPE2AMibRZc27ATY3U1QbmszZ2uUMHNwkEBGtbMfP7YhOX-VHJsqwdaBV53DjLl7-49qUDanTVjvWeThLuuPLxArs2WXS4GYcJSBwwrnKy2d9AsPYQpOxnx_BwMxWk6R1pEcTSL6NEVqGpTTgZCcuk-4cY5xdOnnNxoYB0nrHAKpKZgCAmK_iucjU78IDi&amp;__tn__=*NK-R"">#DigitalCambodia</a> <a href=""https://www.facebook.com/hashtag/cambodiatech?__eep__=6&amp;__cft__[0]=AZXLCR80iz-brkKtWM19bs2KVsIPE2AMibRZc27ATY3U1QbmszZ2uUMHNwkEBGtbMfP7YhOX-VHJsqwdaBV53DjLl7-49qUDanTVjvWeThLuuPLxArs2WXS4GYcJSBwwrnKy2d9AsPYQpOxnx_BwMxWk6R1pEcTSL6NEVqGpTTgZCcuk-4cY5xdOnnNxoYB0nrHAKpKZgCAmK_iucjU78IDi&amp;__tn__=*NK-R"">#CambodiaTech</a></span></p>

<p>&nbsp;</p>

<p>&nbsp;</p>
",,,,,"[""Techpreneur Bootcamp ""]","{""countStudent"": 0, ""countSubject"": 0, ""countTeacher"": 0}",,f,f,t,t,2024-05-30 17:00:00+00,2024-05-31 16:59:59+00,"[{""key"": ""Deadline "", ""value"": ""May 31, 2024 , 5:00 PM ""}]",2024-05-17 02:36:59.864353+00,2024-06-19 03:46:25.508583+00,"",,,aa3d6ef7-a4c6-4935-b580-b09012c3a983#ca1fe4cc-8d2a-4a69-85dd-4f39b0c6adde,0170ebdf-f7b9-4e6c-b803-2c1565677699,93446d8c-854b-4512-b1ec-3be394c66390,0,progress,,
5e17e379-b00a-4c7d-81af-464d9d8d5f2d,8159031c-e448-45ab-9d17-6c8a23301146,21e6d136-3f73-4570-b08a-857297effdc4,,2- Hard Skills,2- ជំនាញរឹង,Hard Skills,"",,,,,[],"{""countStudent"": 0, ""countSubject"": 0, ""countTeacher"": 0}",,f,f,f,t,,,[],2024-05-02 08:26:27.34608+00,2024-05-02 08:26:27.366249+00,"",,,5e17e379-b00a-4c7d-81af-464d9d8d5f2d,0170ebdf-f7b9-4e6c-b803-2c1565677699,93446d8c-854b-4512-b1ec-3be394c66390,0,progress,,
a573e150-5c09-4a7b-b88f-7ffbf2b7a42e,8159031c-e448-45ab-9d17-6c8a23301146,19808703-9a34-4fbe-8434-66621d9a2465,259a862b-eb43-4786-a443-6ef170e49fe4,Sala-digital event,Sala-digital event,Sala-digital event,"",,,,,[],"{""countStudent"": 0, ""countSubject"": 0, ""countTeacher"": 0}",,f,f,t,t,2024-05-30 17:00:00+00,2024-06-01 16:59:59+00,[],2024-05-30 06:19:16.423225+00,2024-05-30 06:20:00.365148+00,"",,,259a862b-eb43-4786-a443-6ef170e49fe4#a573e150-5c09-4a7b-b88f-7ffbf2b7a42e,0170ebdf-f7b9-4e6c-b803-2c1565677699,93446d8c-854b-4512-b1ec-3be394c66390,0,progress,"{""token"": ""056af530bcde4f8fb805995ed640cd4e"", ""password"": null, ""expire_in"": null}",
3906cc84-e9ad-416e-b864-8c6397840005,8159031c-e448-45ab-9d17-6c8a23301146,19808703-9a34-4fbe-8434-66621d9a2465,ac38296f-1a41-45a1-8d8a-345e979913ef,Test3,Test3,Test3,"",,,,,[],"{""countStudent"": 0, ""countSubject"": 0, ""countTeacher"": 0}",,f,f,t,t,2024-06-22 17:00:00+00,2024-06-24 16:59:59+00,[],2024-06-21 09:14:58.538698+00,2024-06-21 09:14:58.563012+00,"",,,ac38296f-1a41-45a1-8d8a-345e979913ef#3906cc84-e9ad-416e-b864-8c6397840005,0170ebdf-f7b9-4e6c-b803-2c1565677699,93446d8c-854b-4512-b1ec-3be394c66390,0,progress,,[]
c81d5978-7322-4530-af9c-acd9277f1a31,8159031c-e448-45ab-9d17-6c8a23301146,19808703-9a34-4fbe-8434-66621d9a2465,901fb398-0f8b-4cfb-a91b-1d0be0f714f8,final notification,final notification,final notification,"",,,,,[],"{""countStudent"": 0, ""countSubject"": 0, ""countTeacher"": 0}",,f,f,t,t,2024-06-06 17:00:00+00,2024-06-07 16:59:59+00,[],2024-06-06 06:33:42.468035+00,2024-06-06 06:33:42.490889+00,"",,,901fb398-0f8b-4cfb-a91b-1d0be0f714f8#c81d5978-7322-4530-af9c-acd9277f1a31,0170ebdf-f7b9-4e6c-b803-2c1565677699,93446d8c-854b-4512-b1ec-3be394c66390,0,progress,,
8ed13e5c-74e5-483a-84a0-2bd429f9dac8,8159031c-e448-45ab-9d17-6c8a23301146,19808703-9a34-4fbe-8434-66621d9a2465,901fb398-0f8b-4cfb-a91b-1d0be0f714f8,Notification-testing,Notification-testing,Notificat,"",,,,,[],"{""countStudent"": 0, ""countSubject"": 0, ""countTeacher"": 0}",,f,f,t,t,2024-06-06 17:00:00+00,2024-06-07 16:59:59+00,[],2024-06-06 04:37:52.550627+00,2024-06-06 07:18:31.555578+00,"",,,901fb398-0f8b-4cfb-a91b-1d0be0f714f8#8ed13e5c-74e5-483a-84a0-2bd429f9dac8,0170ebdf-f7b9-4e6c-b803-2c1565677699,93446d8c-854b-4512-b1ec-3be394c66390,0,progress,"{""token"": ""e7e0f02094b54a3688b0bccb0ac50a80"", ""password"": null, ""expire_in"": null}",
1fb77cdc-5a92-4c2f-b83e-d6916a9d50cd,8159031c-e448-45ab-9d17-6c8a23301146,19808703-9a34-4fbe-8434-66621d9a2465,259a862b-eb43-4786-a443-6ef170e49fe4,University Readiness Program,University Readiness Program,Program,"",,,,,[],"{""countStudent"": 0, ""countSubject"": 0, ""countTeacher"": 0}",,f,f,t,t,2024-05-15 17:00:00+00,2024-05-16 16:59:59+00,"[{""key"": ""Time"", ""value"": ""2:00pm-4:00pm""}]",2024-05-09 17:51:42.118482+00,2024-06-06 07:29:37.549495+00,"",,,259a862b-eb43-4786-a443-6ef170e49fe4#1fb77cdc-5a92-4c2f-b83e-d6916a9d50cd,0170ebdf-f7b9-4e6c-b803-2c1565677699,93446d8c-854b-4512-b1ec-3be394c66390,0,progress,"{""token"": ""51108693c8e341c6b43fabc6cd84d4e9"", ""password"": null, ""expire_in"": null}",
ca2f1718-c4f0-435e-8f13-1e19b5c7edda,b6a00c1d-1dac-4606-b812-f05ba47a7a48,faec82a5-1439-4d07-a27d-0e46a6ababb7,,Sala jobs,Sala jobs,job,"",,,,,[],"{""countStudent"": 0, ""countSubject"": 0, ""countTeacher"": 0}",,f,f,t,t,2024-06-19 17:00:00+00,2024-06-20 16:59:59+00,[],2024-06-20 08:42:34.503056+00,2024-06-20 08:42:34.535081+00,"",,,ca2f1718-c4f0-435e-8f13-1e19b5c7edda,0170ebdf-f7b9-4e6c-b803-2c1565677699,93446d8c-854b-4512-b1ec-3be394c66390,0,progress,,
ebba5ff1-849a-4033-ba66-ca7a5cfa0684,8159031c-e448-45ab-9d17-6c8a23301146,19808703-9a34-4fbe-8434-66621d9a2465,259a862b-eb43-4786-a443-6ef170e49fe4,notification,notification,notification,"",,,,,[],"{""countStudent"": 0, ""countSubject"": 0, ""countTeacher"": 0}",,f,f,t,t,2024-05-30 17:00:00+00,2024-06-01 16:59:59+00,[],2024-05-30 06:42:26.732563+00,2024-05-30 06:42:26.754647+00,"",,,259a862b-eb43-4786-a443-6ef170e49fe4#ebba5ff1-849a-4033-ba66-ca7a5cfa0684,0170ebdf-f7b9-4e6c-b803-2c1565677699,93446d8c-854b-4512-b1ec-3be394c66390,0,progress,,
91c3a0db-59b9-4925-a156-90d34d5a0e0f,b6a00c1d-1dac-4606-b812-f05ba47a7a48,faec82a5-1439-4d07-a27d-0e46a6ababb7,,Test Company ,Test Company ,Test Company ,"",,,,,[],"{""countStudent"": 0, ""countSubject"": 0, ""countTeacher"": 0}",,f,f,t,t,,,[],2024-06-27 08:25:54.539361+00,2024-06-27 08:25:54.556099+00,"",,,91c3a0db-59b9-4925-a156-90d34d5a0e0f,0170ebdf-f7b9-4e6c-b803-2c1565677699,93446d8c-854b-4512-b1ec-3be394c66390,0,progress,,[]
f5011fa0-5bff-4139-b3e0-fb4bcd12c7c1,8159031c-e448-45ab-9d17-6c8a23301146,21e6d136-3f73-4570-b08a-857297effdc4,,3- Networking,3- ការភ្ជាប់បណ្តាញទំនាក់ទំនង,Networking,"",,,,,[],"{""countStudent"": 0, ""countSubject"": 0, ""countTeacher"": 0}",,f,f,f,t,,,[],2024-05-02 08:27:25.320872+00,2024-05-02 08:27:25.32881+00,"",,,f5011fa0-5bff-4139-b3e0-fb4bcd12c7c1,0170ebdf-f7b9-4e6c-b803-2c1565677699,93446d8c-854b-4512-b1ec-3be394c66390,0,progress,,
0e12f37d-411d-408e-ac42-263cd20e6826,8159031c-e448-45ab-9d17-6c8a23301146,19808703-9a34-4fbe-8434-66621d9a2465,901fb398-0f8b-4cfb-a91b-1d0be0f714f8,Techno event,Techno event,Techno event,"",,,,,[],"{""countStudent"": 0, ""countSubject"": 0, ""countTeacher"": 0}",,f,f,t,t,2024-06-21 17:00:00+00,2024-06-22 16:59:59+00,[],2024-06-21 09:16:59.748361+00,2024-06-21 09:16:59.770813+00,"",,,901fb398-0f8b-4cfb-a91b-1d0be0f714f8#0e12f37d-411d-408e-ac42-263cd20e6826,0170ebdf-f7b9-4e6c-b803-2c1565677699,93446d8c-854b-4512-b1ec-3be394c66390,0,progress,,[]
a6c7f4a5-b562-446a-98b4-2b5473d50b28,0018e2f3-1a03-42cd-87f6-8d4289276ea1,312ea108-565c-409b-bae3-21dfdf216a6b,,ABA bank,ABA bank,ABA bank,"",,,,,[],"{""countStudent"": 0, ""countSubject"": 0, ""countTeacher"": 0}",,f,f,t,t,,,[],2024-06-22 03:05:03.550638+00,2024-06-22 03:05:03.55728+00,"",,,a6c7f4a5-b562-446a-98b4-2b5473d50b28,0170ebdf-f7b9-4e6c-b803-2c1565677699,77813d4e-efd9-4015-9030-f221c7355ecc,0,progress,,[]
489d57a4-4934-4800-920e-083827d3221d,8159031c-e448-45ab-9d17-6c8a23301146,19808703-9a34-4fbe-8434-66621d9a2465,259a862b-eb43-4786-a443-6ef170e49fe4,Up skill program,Up skill program,other,"<p>One day left reminder!<br />
<br />
Upskill prgram is one day left!! Get ready? see you soon!</p>
",,,,,[],"{""countStudent"": 0, ""countSubject"": 0, ""countTeacher"": 0}",,f,f,t,t,2024-05-10 17:00:00+00,2024-05-11 16:59:59+00,[],2024-05-10 06:33:19.471959+00,2024-06-06 07:23:22.322401+00,"",1,,259a862b-eb43-4786-a443-6ef170e49fe4#489d57a4-4934-4800-920e-083827d3221d,0170ebdf-f7b9-4e6c-b803-2c1565677699,93446d8c-854b-4512-b1ec-3be394c66390,0,progress,"{""token"": ""76f357f2db7a4dd48ae55173526a3e2e"", ""password"": null, ""expire_in"": null}",
8a4c6f41-c85c-4c7a-bda2-a832a75db475,8159031c-e448-45ab-9d17-6c8a23301146,19808703-9a34-4fbe-8434-66621d9a2465,901fb398-0f8b-4cfb-a91b-1d0be0f714f8,Sala job,Sala job,Sala job,"",,,,,[],"{""countStudent"": 0, ""countSubject"": 0, ""countTeacher"": 0}",,f,f,t,t,2024-06-19 17:00:00+00,2024-06-21 16:59:59+00,[],2024-06-19 07:54:00.244992+00,2024-06-19 07:54:00.254623+00,"",,,901fb398-0f8b-4cfb-a91b-1d0be0f714f8#8a4c6f41-c85c-4c7a-bda2-a832a75db475,0170ebdf-f7b9-4e6c-b803-2c1565677699,93446d8c-854b-4512-b1ec-3be394c66390,0,progress,,
7b88553c-63e8-43fa-ac81-31771714e6fa,8159031c-e448-45ab-9d17-6c8a23301146,21e6d136-3f73-4570-b08a-857297effdc4,,4- Social Events,5- កម្មវិធីសង្គម,Social Events,"",,,,,[],"{""countStudent"": 0, ""countSubject"": 0, ""countTeacher"": 0}",,f,f,f,t,,,[],2024-05-02 08:28:21.493259+00,2024-05-02 08:28:21.498276+00,"",,,7b88553c-63e8-43fa-ac81-31771714e6fa,0170ebdf-f7b9-4e6c-b803-2c1565677699,93446d8c-854b-4512-b1ec-3be394c66390,0,progress,,
e5b923d3-c952-4bf4-ba51-337e77910592,8159031c-e448-45ab-9d17-6c8a23301146,19808703-9a34-4fbe-8434-66621d9a2465,901fb398-0f8b-4cfb-a91b-1d0be0f714f8,Career Talk,Career Talk,Career Talk,"",,,,,[],"{""countStudent"": 0, ""countSubject"": 0, ""countTeacher"": 0}",,f,f,t,t,2024-06-06 17:00:00+00,2024-06-07 16:59:59+00,[],2024-06-06 06:48:17.933406+00,2024-06-06 07:19:52.652133+00,"",,,901fb398-0f8b-4cfb-a91b-1d0be0f714f8#e5b923d3-c952-4bf4-ba51-337e77910592,0170ebdf-f7b9-4e6c-b803-2c1565677699,93446d8c-854b-4512-b1ec-3be394c66390,0,progress,"{""token"": ""c5de7c50143243feafdfd64c7edc9f29"", ""password"": null, ""expire_in"": null}",
7a70f340-9e8f-4085-993a-f24f9aeac2a7,b6a00c1d-1dac-4606-b812-f05ba47a7a48,faec82a5-1439-4d07-a27d-0e46a6ababb7,,Foodpanda,Foodpanda,Foodpanda,"",,,,,[],"{""countStudent"": 0, ""countSubject"": 0, ""countTeacher"": 0}",,f,f,t,t,,,[],2024-05-29 04:56:02.296142+00,2024-05-29 04:56:02.355536+00,"",,,7a70f340-9e8f-4085-993a-f24f9aeac2a7,0170ebdf-f7b9-4e6c-b803-2c1565677699,93446d8c-854b-4512-b1ec-3be394c66390,0,progress,,
56a21934-b841-4d9d-8e54-1c3b1d545bd7,8159031c-e448-45ab-9d17-6c8a23301146,19808703-9a34-4fbe-8434-66621d9a2465,901fb398-0f8b-4cfb-a91b-1d0be0f714f8,Sophorn test,Sophorn test,Sophorn test,"",,,,,[],"{""countStudent"": 0, ""countSubject"": 0, ""countTeacher"": 0}",,f,f,t,t,2024-06-21 17:00:00+00,2024-06-22 16:59:59+00,[],2024-06-21 09:32:24.685522+00,2024-06-21 09:32:24.699361+00,"",,,901fb398-0f8b-4cfb-a91b-1d0be0f714f8#56a21934-b841-4d9d-8e54-1c3b1d545bd7,0170ebdf-f7b9-4e6c-b803-2c1565677699,93446d8c-854b-4512-b1ec-3be394c66390,0,progress,,[]
ac1453a5-e88f-4f33-8fb4-44f077c88b3e,8159031c-e448-45ab-9d17-6c8a23301146,19808703-9a34-4fbe-8434-66621d9a2465,ac38296f-1a41-45a1-8d8a-345e979913ef,Pre-register from sms,Pre-registe,Pre-registe,"",,,,,[],"{""countStudent"": 0, ""countSubject"": 0, ""countTeacher"": 0}",,f,f,t,t,2024-06-23 17:00:00+00,2024-06-24 16:59:59+00,[],2024-06-23 03:39:24.754872+00,2024-06-23 03:39:24.775876+00,"",,,ac38296f-1a41-45a1-8d8a-345e979913ef#ac1453a5-e88f-4f33-8fb4-44f077c88b3e,0170ebdf-f7b9-4e6c-b803-2c1565677699,93446d8c-854b-4512-b1ec-3be394c66390,0,progress,,"[""sophorn@sala.co""]"
4f476c34-df1e-4770-a274-030b0ff066d3,8159031c-e448-45ab-9d17-6c8a23301146,19808703-9a34-4fbe-8434-66621d9a2465,5e17e379-b00a-4c7d-81af-464d9d8d5f2d,GLS Sharing Session_ NUM_CC,GLS Sharing Session_ NUM_CC,hard skill ,"<p>DASHBOARDS WITH GOOGLE LOOKER STUDIO Join us for a session that&#39;ll turn your data into a visual masterpiece. Don&#39;t miss out-it&#39;s time to make your insights shine!&nbsp;</p>

<p>Key featuers:&nbsp;Looker<br />
-&nbsp;Comprehensive data integration<br />
-Customizable and interactive reporting<br />
- Advanced dynamic data visualization<br />
- Collaboration and sharing features<br />
- Available in free plan</p>

<p>&nbsp;</p>
",,,,,[],"{""countStudent"": 0, ""countSubject"": 0, ""countTeacher"": 0}",,f,f,t,t,2024-06-12 17:00:00+00,2024-06-14 16:59:59+00,"[{""key"": ""Time"", ""value"": ""8:00am-12:00pm""}]",2024-05-09 03:35:23.76665+00,2024-06-06 08:46:35.580226+00,"",,,5e17e379-b00a-4c7d-81af-464d9d8d5f2d#4f476c34-df1e-4770-a274-030b0ff066d3,0170ebdf-f7b9-4e6c-b803-2c1565677699,93446d8c-854b-4512-b1ec-3be394c66390,0,progress,"{""token"": ""88ad746328c34b48afba2a26c65baf84"", ""password"": null, ""expire_in"": null}",
259a862b-eb43-4786-a443-6ef170e49fe4,8159031c-e448-45ab-9d17-6c8a23301146,21e6d136-3f73-4570-b08a-857297effdc4,,5- Other ,5- ផ្សេងៗ,Other ,"",,,,,[],"{""countStudent"": 0, ""countSubject"": 0, ""countTeacher"": 0}",,f,f,f,t,,,[],2024-05-02 08:28:43.183692+00,2024-05-02 08:28:43.189972+00,"",,,259a862b-eb43-4786-a443-6ef170e49fe4,0170ebdf-f7b9-4e6c-b803-2c1565677699,93446d8c-854b-4512-b1ec-3be394c66390,0,progress,,
11683b34-30af-4a3a-bcf4-d3150b684a63,8159031c-e448-45ab-9d17-6c8a23301146,21e6d136-3f73-4570-b08a-857297effdc4,,Program,Program,Program,"",,,,,[],"{""countStudent"": 0, ""countSubject"": 0, ""countTeacher"": 0}",,f,f,t,t,,,[],2024-06-03 07:22:59.266211+00,2024-06-03 07:22:59.287846+00,"",,,11683b34-30af-4a3a-bcf4-d3150b684a63,0170ebdf-f7b9-4e6c-b803-2c1565677699,93446d8c-854b-4512-b1ec-3be394c66390,0,progress,,
e0a201db-6c2e-4c5f-98c2-cbb405b43e06,8159031c-e448-45ab-9d17-6c8a23301146,19808703-9a34-4fbe-8434-66621d9a2465,901fb398-0f8b-4cfb-a91b-1d0be0f714f8,Smey Test,Smey Test,Test,"",,,,,[],"{""countStudent"": 0, ""countSubject"": 0, ""countTeacher"": 0}",,f,f,t,t,2024-06-20 06:10:00.976+00,2024-06-20 07:00:00.976+00,[],2024-06-20 05:38:50.474897+00,2024-06-20 06:08:17.021526+00,"",3,,901fb398-0f8b-4cfb-a91b-1d0be0f714f8#e0a201db-6c2e-4c5f-98c2-cbb405b43e06,0170ebdf-f7b9-4e6c-b803-2c1565677699,93446d8c-854b-4512-b1ec-3be394c66390,0,progress,"{""token"": ""37250644703940ddac6d2665bc8abe75"", ""password"": null, ""expire_in"": null}",
75371e8a-c802-46d0-b071-868f36194afc,b6a00c1d-1dac-4606-b812-f05ba47a7a48,b3a2c4cf-56f6-46df-bace-7f05bd479d30,f6c3ac80-5f0c-4611-94ca-266e9810bb85,Procurement Manager,Procurement Manager,Procurement Manager,"",,,,,[],"{""countStudent"": 0, ""countSubject"": 0, ""countTeacher"": 0}",,f,f,t,t,2024-03-31 17:00:00+00,2024-05-31 16:59:59+00,[],2024-04-23 09:54:47.142489+00,2024-05-08 09:44:19.538036+00,"",,,f6c3ac80-5f0c-4611-94ca-266e9810bb85#75371e8a-c802-46d0-b071-868f36194afc,0170ebdf-f7b9-4e6c-b803-2c1565677699,93446d8c-854b-4512-b1ec-3be394c66390,0,progress,"{""token"": ""8feb0b11c92d46178d03abc8216a8b3d"", ""password"": null, ""expire_in"": null}",
653e019e-e0ee-401b-ba12-a5a9d7be7f23,a6e337a1-e806-44b0-97b7-f2fdb75cb4d5,757f3fe2-6903-4163-acdc-874845c374fd,b6513656-39de-4e6b-b09c-3de36e6da509,Testing GLS Sharing Session,Testing GLS Sharing Session,121,"<p>testing testing&nbsp;testing testing&nbsp;testing testing&nbsp;</p>
",,,,,[],"{""countStudent"": 0, ""countSubject"": 0, ""countTeacher"": 0}",,f,f,t,t,2024-06-19 17:00:00+00,2024-06-20 16:59:59+00,[],2024-06-20 08:46:11.073519+00,2024-06-20 08:46:11.095634+00,"",1,,b6513656-39de-4e6b-b09c-3de36e6da509#653e019e-e0ee-401b-ba12-a5a9d7be7f23,0170ebdf-f7b9-4e6c-b803-2c1565677699,77813d4e-efd9-4015-9030-f221c7355ecc,0,progress,,
a7a8716c-1e6d-4802-8dca-86169ab4f438,6f93755a-32f2-4e65-83d6-fee651c786de,fc329bcc-1453-4ad2-ab89-c13a794f715b,,Google Looker Studio,តេស្ត,28,"",,,,,[],"{""countStudent"": 0, ""countSubject"": 0, ""countTeacher"": 0}",,f,f,t,t,2024-06-13 17:00:00+00,2024-06-14 16:59:59+00,[],2024-06-11 14:18:12.463414+00,2024-06-13 09:57:14.464949+00,"",20,,a7a8716c-1e6d-4802-8dca-86169ab4f438,0170ebdf-f7b9-4e6c-b803-2c1565677699,dafeb565-cfd3-490b-aefc-5c9a78282b2e,0,progress,"{""token"": ""d317d41e0ae14acb9689b48dc44f6e23"", ""password"": null, ""expire_in"": null}",
a5014216-b82e-4431-b574-151118f302e5,b6a00c1d-1dac-4606-b812-f05ba47a7a48,b3a2c4cf-56f6-46df-bace-7f05bd479d30,f6c3ac80-5f0c-4611-94ca-266e9810bb85,Job with Img,Job with Img,Job with Img,"",,,https://files.staging.sala.tech/share/9aA7i01rHOoMd6En/filename/2024-06-23_19-19-03.png,,[],"{""countStudent"": 0, ""countSubject"": 0, ""countTeacher"": 0}",,f,f,t,t,2024-06-28 17:00:00+00,2024-06-29 16:59:59+00,[],2024-06-23 12:17:11.417971+00,2024-06-23 12:19:11.879432+00,"",,,f6c3ac80-5f0c-4611-94ca-266e9810bb85#a5014216-b82e-4431-b574-151118f302e5,0170ebdf-f7b9-4e6c-b803-2c1565677699,93446d8c-854b-4512-b1ec-3be394c66390,0,progress,,[]
901fb398-0f8b-4cfb-a91b-1d0be0f714f8,8159031c-e448-45ab-9d17-6c8a23301146,21e6d136-3f73-4570-b08a-857297effdc4,,Testing Event ,តេស្ត,Testing Event ,"",,,,,[],"{""countStudent"": 0, ""countSubject"": 0, ""countTeacher"": 0}",,f,f,t,t,2024-06-01 17:00:00+00,2024-06-10 16:59:59+00,[],2024-06-03 07:55:06.504249+00,2024-06-20 05:23:07.325489+00,"",,,901fb398-0f8b-4cfb-a91b-1d0be0f714f8,0170ebdf-f7b9-4e6c-b803-2c1565677699,93446d8c-854b-4512-b1ec-3be394c66390,0,progress,"{""token"": ""cf1f8f0486264e97b32216f495a39a10"", ""password"": null, ""expire_in"": null}",
c7ca9136-bc3a-4701-a8f0-95878fcebddd,b6a00c1d-1dac-4606-b812-f05ba47a7a48,b3a2c4cf-56f6-46df-bace-7f05bd479d30,f6c3ac80-5f0c-4611-94ca-266e9810bb85,Junior mobile,Junior mobile,Junior mobile,"",,,,,[],"{""countStudent"": 0, ""countSubject"": 0, ""countTeacher"": 0}",,f,f,t,t,2024-05-08 17:00:00+00,2024-05-09 16:59:59+00,[],2024-05-08 09:44:14.253913+00,2024-05-08 09:44:14.26642+00,"",,,f6c3ac80-5f0c-4611-94ca-266e9810bb85#c7ca9136-bc3a-4701-a8f0-95878fcebddd,0170ebdf-f7b9-4e6c-b803-2c1565677699,93446d8c-854b-4512-b1ec-3be394c66390,0,progress,,
b6513656-39de-4e6b-b09c-3de36e6da509,a6e337a1-e806-44b0-97b7-f2fdb75cb4d5,ac079ba4-c5af-4a4d-bdcf-61e23eac453f,,1- Soft Skills,1- Soft Skills,Soft Skills,"",,,,,[],"{""countStudent"": 0, ""countSubject"": 0, ""countTeacher"": 0}",,f,f,f,t,,,[],2024-05-02 09:23:28.761628+00,2024-05-02 09:23:28.770121+00,"",,,b6513656-39de-4e6b-b09c-3de36e6da509,0170ebdf-f7b9-4e6c-b803-2c1565677699,77813d4e-efd9-4015-9030-f221c7355ecc,0,progress,,
31755f12-26bd-47e6-9543-2dfb9c152feb,6f93755a-32f2-4e65-83d6-fee651c786de,fc329bcc-1453-4ad2-ab89-c13a794f715b,,Testing,tsss,dfdf,"",,,,,[],"{""countStudent"": 0, ""countSubject"": 0, ""countTeacher"": 0}",,f,f,t,t,2024-06-19 17:00:00+00,2024-07-02 16:59:59+00,[],2024-06-13 03:28:14.145413+00,2024-06-13 03:28:14.191803+00,"",,,31755f12-26bd-47e6-9543-2dfb9c152feb,0170ebdf-f7b9-4e6c-b803-2c1565677699,dafeb565-cfd3-490b-aefc-5c9a78282b2e,0,progress,,
394dff95-a559-4b90-92c2-87998fac7381,0018e2f3-1a03-42cd-87f6-8d4289276ea1,312ea108-565c-409b-bae3-21dfdf216a6b,,Sala Tech Digital Sulution,Sala Tech Digital Sulution,Sala Tech,"",,,,,[],"{""countStudent"": 0, ""countSubject"": 0, ""countTeacher"": 0}",,f,f,t,t,,,[],2024-06-22 03:04:46.473724+00,2024-06-22 03:04:46.498986+00,"",,,394dff95-a559-4b90-92c2-87998fac7381,0170ebdf-f7b9-4e6c-b803-2c1565677699,77813d4e-efd9-4015-9030-f221c7355ecc,0,progress,,[]
0c28aa34-2d54-405c-8225-62ccb04c176e,a6e337a1-e806-44b0-97b7-f2fdb75cb4d5,ac079ba4-c5af-4a4d-bdcf-61e23eac453f,,2- Hard Skills,2- Hard Skills,Hard Skills,"",,,,,[],"{""countStudent"": 0, ""countSubject"": 0, ""countTeacher"": 0}",,f,f,f,t,,,[],2024-05-02 09:23:57.623395+00,2024-05-02 09:23:57.629378+00,"",,,0c28aa34-2d54-405c-8225-62ccb04c176e,0170ebdf-f7b9-4e6c-b803-2c1565677699,77813d4e-efd9-4015-9030-f221c7355ecc,0,progress,,
4cee432d-37d6-4a1c-a10e-8c458ab14d8e,8159031c-e448-45ab-9d17-6c8a23301146,21e6d136-3f73-4570-b08a-857297effdc4,,Testing,Testing,Testing,"",,,,,[],"{""countStudent"": 0, ""countSubject"": 0, ""countTeacher"": 0}",,f,f,t,t,,,[],2024-06-20 06:31:19.369273+00,2024-06-20 06:31:19.379516+00,"",,,4cee432d-37d6-4a1c-a10e-8c458ab14d8e,0170ebdf-f7b9-4e6c-b803-2c1565677699,93446d8c-854b-4512-b1ec-3be394c66390,0,progress,,
0c3525f8-4894-4ef2-ade3-594cdd78daa5,8159031c-e448-45ab-9d17-6c8a23301146,19808703-9a34-4fbe-8434-66621d9a2465,ac38296f-1a41-45a1-8d8a-345e979913ef,test3,test3,test3,"",,,,,[],"{""countStudent"": 0, ""countSubject"": 0, ""countTeacher"": 0}",,f,f,t,t,2024-06-21 17:00:00+00,2024-06-22 16:59:59+00,[],2024-06-21 04:38:13.218985+00,2024-06-21 04:38:13.237046+00,"",,,ac38296f-1a41-45a1-8d8a-345e979913ef#0c3525f8-4894-4ef2-ade3-594cdd78daa5,0170ebdf-f7b9-4e6c-b803-2c1565677699,93446d8c-854b-4512-b1ec-3be394c66390,0,progress,,
28b1c1e0-cf7c-4b15-ae7e-f127032edaa8,8159031c-e448-45ab-9d17-6c8a23301146,21e6d136-3f73-4570-b08a-857297effdc4,,GLS Session 2,GLS Session 2,GLS,"",,,,,[],"{""countStudent"": 0, ""countSubject"": 0, ""countTeacher"": 0}",,f,f,t,t,2024-06-12 17:00:00+00,2024-06-20 16:59:59+00,[],2024-06-13 08:37:39.468286+00,2024-06-13 08:37:39.502131+00,"",20,,28b1c1e0-cf7c-4b15-ae7e-f127032edaa8,0170ebdf-f7b9-4e6c-b803-2c1565677699,93446d8c-854b-4512-b1ec-3be394c66390,0,progress,,
8de988e2-fdbd-4e79-88e0-6ca8d4fd2ec8,8159031c-e448-45ab-9d17-6c8a23301146,19808703-9a34-4fbe-8434-66621d9a2465,4cee432d-37d6-4a1c-a10e-8c458ab14d8e,Final import data,Final import data,Final import data,"",,,,,[],"{""countStudent"": 0, ""countSubject"": 0, ""countTeacher"": 0}",,f,f,t,t,2024-06-27 17:00:00+00,2024-06-30 16:59:59+00,[],2024-06-27 04:48:30.293871+00,2024-06-27 04:49:21.72867+00,"",,,4cee432d-37d6-4a1c-a10e-8c458ab14d8e#8de988e2-fdbd-4e79-88e0-6ca8d4fd2ec8,0170ebdf-f7b9-4e6c-b803-2c1565677699,93446d8c-854b-4512-b1ec-3be394c66390,0,progress,,[]
99c97462-6372-4e7c-813d-ddf9717cc481,8159031c-e448-45ab-9d17-6c8a23301146,19808703-9a34-4fbe-8434-66621d9a2465,4cee432d-37d6-4a1c-a10e-8c458ab14d8e,Testing2,Testing2,Testing2,"",,,https://files.staging.sala.tech/share/sGiuE0jVnfFkiMAc/filename/2024-06-24_09-50-52.jpg,,[],"{""countStudent"": 0, ""countSubject"": 0, ""countTeacher"": 0}",,f,f,t,t,2024-06-24 17:00:00+00,2024-06-30 16:59:59+00,[],2024-06-24 02:50:57.864136+00,2024-06-24 03:58:46.997577+00,"",,,4cee432d-37d6-4a1c-a10e-8c458ab14d8e#99c97462-6372-4e7c-813d-ddf9717cc481,0170ebdf-f7b9-4e6c-b803-2c1565677699,93446d8c-854b-4512-b1ec-3be394c66390,0,progress,"{""token"": ""3d8ccd7c2f8c4319842eacde4b025aa9"", ""password"": null, ""expire_in"": null}",[]
f1fd809f-d361-42ab-8f72-147eddbf7793,b6a00c1d-1dac-4606-b812-f05ba47a7a48,b3a2c4cf-56f6-46df-bace-7f05bd479d30,7a70f340-9e8f-4085-993a-f24f9aeac2a7,Full Stack Developer,Full Stack Developer,Full Stack Developer,"<p>Job Requirement</p>

<ul>
	<li>A bachelor&rsquo;s degree or higher in computer science, engineering, or a related field</li>
	<li>Minimum 2 years of experience in&nbsp;nodeJs &amp; ReactJs.</li>
	<li>&nbsp;</li>
	<li>Experience in MEAN stack development is an advantage.</li>
	<li>Should have knowledge in Version control such as SVN, Git</li>
	<li>Should have knowledge on Agile development methodologies.</li>
	<li>Should have good communication and presentation skills.</li>
	<li>Should possess sound knowledge&nbsp;of&nbsp;JavascriptJavaScript core concepts.</li>
	<li>Should have knowledge&nbsp;in&nbsp;middlewaresmiddleware such as ExpressJS.</li>
	<li>Knowledge of multiple databases and servers such as MySQL, PostgreSQL, MongoDB, Oracle, etc.</li>
	<li>Knowledge of multiple databases and servers such as MySQL, PostgreSQL, MongoDB, Oracle, etc.</li>
	<li>Should&nbsp;possess&nbsp;good knowledge of MongoDB and Mongoose or any other MongoDB&nbsp;drivers.</li>
	<li>Should have good experience in developing restful&nbsp;APIs keeping performance in mind.</li>
	<li>Knowledge&nbsp;of libraries&nbsp;such as AsyncJS, UnderscoreJS, etc will be an added&nbsp;value.</li>
	<li>Knowledge&nbsp;of client-side&nbsp;technology such as HTML, CSS, AngularJS, React, etc. will be an added value.</li>
</ul>

<p>Job Responsibility</p>

<ul>
	<li>Develop Web API using Mean stack.</li>
	<li>Should be able to understand the requirements and develop the components.</li>
	<li>Should be able to follow the coding guidelines set and follow the standard SDLC processes.</li>
	<li>Test software to ensure responsiveness and efficiency.</li>
	<li>Ensure Zero Regressions in the buildings.</li>
	<li>Ensure zero code leakages and code breaks the product.</li>
	<li>Must provide regular updates in the Scrum meetings.</li>
	<li>Address the performance issues.</li>
	<li>Adhere to the timelines in delivery.Collaborate with Customer/vendor to gather the requirements and&nbsp;convert it solution.</li>
	<li>Ensure zero code leakages and code breaks the product.</li>
</ul>

<p>Employee Benefit</p>

<p>N/A</p>
",,,https://files.staging.sala.tech/share/R2I12etaVguzCQBg/filename/2024-06-24_19-06-59.png,,[],"{""countStudent"": 0, ""countSubject"": 0, ""countTeacher"": 0}",,f,f,t,t,2024-05-31 17:00:00+00,2024-07-31 16:59:59+00,[],2024-06-24 12:07:43.475035+00,2024-06-24 12:07:43.497478+00,"",3,,7a70f340-9e8f-4085-993a-f24f9aeac2a7#f1fd809f-d361-42ab-8f72-147eddbf7793,0170ebdf-f7b9-4e6c-b803-2c1565677699,93446d8c-854b-4512-b1ec-3be394c66390,0,progress,,"[""lysang@sala.co""]"
ae10df27-020f-4f15-bec8-35d406671b09,b6a00c1d-1dac-4606-b812-f05ba47a7a48,b3a2c4cf-56f6-46df-bace-7f05bd479d30,f2c7274d-64a5-4a3b-b466-d2b14b1443db,QA position,QA position,QA position,"",,,https://files.staging.sala.tech/share/c2RtVKfSHFUaI6Vd/filename/2024-06-27_11-07-12.jpg,,[],"{""countStudent"": 0, ""countSubject"": 0, ""countTeacher"": 0}",,f,f,t,t,2024-06-25 17:00:00+00,2024-06-27 16:59:59+00,[],2024-06-27 04:07:38.489608+00,2024-06-27 04:10:27.821+00,"",,,f2c7274d-64a5-4a3b-b466-d2b14b1443db#ae10df27-020f-4f15-bec8-35d406671b09,0170ebdf-f7b9-4e6c-b803-2c1565677699,93446d8c-854b-4512-b1ec-3be394c66390,0,progress,,"[""sophorn@sala.co""]"
7e471468-c1bd-47e7-9e0d-e2600166dc34,8159031c-e448-45ab-9d17-6c8a23301146,19808703-9a34-4fbe-8434-66621d9a2465,5e17e379-b00a-4c7d-81af-464d9d8d5f2d,Training on Marchine Learning,Training on Marchine Learning,FY22,"",,,,,[],"{""countStudent"": 0, ""countSubject"": 0, ""countTeacher"": 0}",,f,f,f,t,2024-05-19 17:00:00+00,2024-05-20 16:59:59+00,[],2024-06-27 04:17:32.85767+00,2024-06-27 04:17:32.872835+00,"",,,5e17e379-b00a-4c7d-81af-464d9d8d5f2d#7e471468-c1bd-47e7-9e0d-e2600166dc34,0170ebdf-f7b9-4e6c-b803-2c1565677699,93446d8c-854b-4512-b1ec-3be394c66390,0,progress,,[]
013102e7-3590-41c2-a899-4f977af75e9c,c54e3b36-2d5a-4196-b58f-a91ff120b693,a14111b6-d518-46f2-b3b7-fce4d215d123,2e08c21b-b7cc-4b7d-96eb-3fe266a0c893,Training,Training,001,"",,,,,[],"{""countStudent"": 0, ""countSubject"": 0, ""countTeacher"": 0}",,f,f,t,t,2024-05-19 17:00:00+00,2024-05-20 16:59:59+00,[],2024-06-27 04:55:56.810995+00,2024-06-27 04:55:56.821592+00,"",,,2e08c21b-b7cc-4b7d-96eb-3fe266a0c893#013102e7-3590-41c2-a899-4f977af75e9c,0170ebdf-f7b9-4e6c-b803-2c1565677699,a63b16fe-eda8-4f23-a214-951b81b9c01c,0,progress,,[]
b69c5bd7-076a-4508-adec-47fc189d6685,8159031c-e448-45ab-9d17-6c8a23301146,19808703-9a34-4fbe-8434-66621d9a2465,ac38296f-1a41-45a1-8d8a-345e979913ef,DWD student,DWD student,DWD student,"",,,,,[],"{""countStudent"": 0, ""countSubject"": 0, ""countTeacher"": 0}",,f,f,t,t,2024-06-27 17:00:00+00,2024-06-28 16:59:59+00,[],2024-06-27 05:39:26.415975+00,2024-06-27 05:39:26.429032+00,"",,,ac38296f-1a41-45a1-8d8a-345e979913ef#b69c5bd7-076a-4508-adec-47fc189d6685,0170ebdf-f7b9-4e6c-b803-2c1565677699,93446d8c-854b-4512-b1ec-3be394c66390,0,progress,,[]
a27325a9-a406-402e-8a82-a50d016a626f,8159031c-e448-45ab-9d17-6c8a23301146,19808703-9a34-4fbe-8434-66621d9a2465,aa3d6ef7-a4c6-4935-b580-b09012c3a983,Test B,Test B,Test B,"",,,,,[],"{""countStudent"": 0, ""countSubject"": 0, ""countTeacher"": 0}",,f,f,t,t,2024-06-27 17:00:00+00,2024-06-28 16:59:59+00,[],2024-06-27 07:49:48.00143+00,2024-06-27 08:06:51.67368+00,"",,,aa3d6ef7-a4c6-4935-b580-b09012c3a983#a27325a9-a406-402e-8a82-a50d016a626f,0170ebdf-f7b9-4e6c-b803-2c1565677699,93446d8c-854b-4512-b1ec-3be394c66390,0,progress,"{""token"": ""ac4e54f493f94824a72f591eebe2a20f"", ""password"": null, ""expire_in"": null}",[]
e6652392-b739-4c31-8c3c-9fa0cedf4078,0018e2f3-1a03-42cd-87f6-8d4289276ea1,762c994f-b913-4358-9301-860a040881b3,394dff95-a559-4b90-92c2-87998fac7381,Junior mobile,Junior mobile,Junior mobile,"",,,,,[],"{""countStudent"": 0, ""countSubject"": 0, ""countTeacher"": 0}",,f,f,t,t,2024-06-22 17:00:00+00,2024-06-30 16:59:59+00,"[{""key"": """", ""value"": """"}]",2024-06-22 04:26:54.254467+00,2024-06-22 04:27:38.36367+00,"",,,394dff95-a559-4b90-92c2-87998fac7381#e6652392-b739-4c31-8c3c-9fa0cedf4078,0170ebdf-f7b9-4e6c-b803-2c1565677699,77813d4e-efd9-4015-9030-f221c7355ecc,0,progress,,"[""sophorn@sala.co""]"
fb6048f7-4779-4276-930a-d579e24e9cb5,0018e2f3-1a03-42cd-87f6-8d4289276ea1,762c994f-b913-4358-9301-860a040881b3,394dff95-a559-4b90-92c2-87998fac7381,Notification,Notification,Notification,"",,,,,[],"{""countStudent"": 0, ""countSubject"": 0, ""countTeacher"": 0}",,f,f,t,t,2024-06-22 17:00:00+00,2024-06-30 16:59:59+00,[],2024-06-22 04:35:54.353883+00,2024-06-22 04:35:54.367584+00,"",,,394dff95-a559-4b90-92c2-87998fac7381#fb6048f7-4779-4276-930a-d579e24e9cb5,0170ebdf-f7b9-4e6c-b803-2c1565677699,77813d4e-efd9-4015-9030-f221c7355ecc,0,progress,,"[""sophorn@sala.co""]"
4efd207a-447d-4766-bb2e-cb547aa79279,0018e2f3-1a03-42cd-87f6-8d4289276ea1,762c994f-b913-4358-9301-860a040881b3,394dff95-a559-4b90-92c2-87998fac7381,UX UI,UX UI,UX UI,"",,,,,[],"{""countStudent"": 0, ""countSubject"": 0, ""countTeacher"": 0}",,f,f,t,t,2024-06-22 17:00:00+00,2024-06-30 16:59:59+00,[],2024-06-22 06:26:19.417878+00,2024-06-22 06:26:19.435491+00,"",,,394dff95-a559-4b90-92c2-87998fac7381#4efd207a-447d-4766-bb2e-cb547aa79279,0170ebdf-f7b9-4e6c-b803-2c1565677699,77813d4e-efd9-4015-9030-f221c7355ecc,0,progress,,[]
9a3321c5-c265-44a5-8a74-9a72d60b3588,b6a00c1d-1dac-4606-b812-f05ba47a7a48,b3a2c4cf-56f6-46df-bace-7f05bd479d30,f6c3ac80-5f0c-4611-94ca-266e9810bb85,Hak Job,Hak Job,Hak Job,"",,,,,[],"{""countStudent"": 0, ""countSubject"": 0, ""countTeacher"": 0}",,f,f,t,t,2024-06-28 17:00:00+00,2024-06-29 16:59:59+00,[],2024-06-22 07:18:06.946321+00,2024-06-22 07:18:06.952319+00,"",,,f6c3ac80-5f0c-4611-94ca-266e9810bb85#9a3321c5-c265-44a5-8a74-9a72d60b3588,0170ebdf-f7b9-4e6c-b803-2c1565677699,93446d8c-854b-4512-b1ec-3be394c66390,0,progress,,"[""eakhout@sala.co""]"
e8f36bb0-1a89-4f0f-89d5-e8767c9c09fc,8159031c-e448-45ab-9d17-6c8a23301146,19808703-9a34-4fbe-8434-66621d9a2465,ac38296f-1a41-45a1-8d8a-345e979913ef,SmeyTest1,SmeyTest1,SmeyTest1,"",,,,,[],"{""countStudent"": 0, ""countSubject"": 0, ""countTeacher"": 0}",,f,f,t,t,2024-06-20 17:00:00+00,2024-06-30 16:59:59+00,[],2024-06-22 07:21:14.40058+00,2024-06-22 07:21:14.432148+00,"",,,ac38296f-1a41-45a1-8d8a-345e979913ef#e8f36bb0-1a89-4f0f-89d5-e8767c9c09fc,0170ebdf-f7b9-4e6c-b803-2c1565677699,93446d8c-854b-4512-b1ec-3be394c66390,0,progress,,[]
169003db-6730-4644-827c-4ebc0ecdf9a9,8159031c-e448-45ab-9d17-6c8a23301146,19808703-9a34-4fbe-8434-66621d9a2465,ac38296f-1a41-45a1-8d8a-345e979913ef,test111,test111,test111,"",,,,,[],"{""countStudent"": 0, ""countSubject"": 0, ""countTeacher"": 0}",,f,f,t,t,2024-06-28 17:00:00+00,2024-06-29 16:59:59+00,[],2024-06-22 10:49:22.296923+00,2024-06-22 10:49:22.301986+00,"",,,ac38296f-1a41-45a1-8d8a-345e979913ef#169003db-6730-4644-827c-4ebc0ecdf9a9,0170ebdf-f7b9-4e6c-b803-2c1565677699,93446d8c-854b-4512-b1ec-3be394c66390,0,progress,,[]
06d3bba8-a141-451f-b3fe-f7c163a57bea,8159031c-e448-45ab-9d17-6c8a23301146,19808703-9a34-4fbe-8434-66621d9a2465,ac38296f-1a41-45a1-8d8a-345e979913ef,Import6,Import6,Import6,"",,,,,[],"{""countStudent"": 0, ""countSubject"": 0, ""countTeacher"": 0}",,f,f,t,t,2024-06-22 17:00:00+00,2024-06-23 16:59:59+00,[],2024-06-22 11:05:10.205991+00,2024-06-22 11:05:10.218267+00,"",,,ac38296f-1a41-45a1-8d8a-345e979913ef#06d3bba8-a141-451f-b3fe-f7c163a57bea,0170ebdf-f7b9-4e6c-b803-2c1565677699,93446d8c-854b-4512-b1ec-3be394c66390,0,progress,,[]
a73d404e-eb0c-414a-a7f8-d4657d21f13d,0018e2f3-1a03-42cd-87f6-8d4289276ea1,762c994f-b913-4358-9301-860a040881b3,394dff95-a559-4b90-92c2-87998fac7381,Mobile developer,Mobile developer,Mobile developer,"<h2>About the job</h2>

<p>The ideal candidate will be responsible for the technical design and implementation of new products and enhancements. They will work in all phases of the development cycle: concept to implementation.</p>

<p>&nbsp;</p>

<p><strong>Responsibilities</strong></p>

<ul>
	<li>APP development and release.</li>
</ul>

<p>&nbsp;</p>

<p><strong>Qualifications</strong></p>

<p>&nbsp;</p>

<ul>
	<li>Proficient in using Flutter to develop mobile applications.</li>
	<li>More than 3 years of development experience.</li>
	<li>Proficient in using frameworks, components, and tools.</li>
	<li>Highly complete UI interface and functional logic.</li>
	<li>Proficient in using Android or IOS native APIs, debugging, and packaging.</li>
	<li>Proficient in publishing on Apple Store and Google Play, and familiar with the rules.</li>
	<li><strong>(Internships and work experience below 3 years are not accepted)</strong></li>
</ul>

<h2>Qualifications</h2>
",,,,,[],"{""countStudent"": 0, ""countSubject"": 0, ""countTeacher"": 0}",,f,f,t,t,2024-06-21 17:00:00+00,2024-06-30 16:59:59+00,[],2024-06-22 03:08:14.921981+00,2024-06-22 03:08:14.929362+00,"",,,394dff95-a559-4b90-92c2-87998fac7381#a73d404e-eb0c-414a-a7f8-d4657d21f13d,0170ebdf-f7b9-4e6c-b803-2c1565677699,77813d4e-efd9-4015-9030-f221c7355ecc,0,progress,,[]
8f94142f-d085-4598-bcc3-6cdb64e514e6,8159031c-e448-45ab-9d17-6c8a23301146,19808703-9a34-4fbe-8434-66621d9a2465,4cee432d-37d6-4a1c-a10e-8c458ab14d8e,Testing3,Testing3,Testing3,"",,,,,[],"{""countStudent"": 0, ""countSubject"": 0, ""countTeacher"": 0}",,f,f,t,t,2024-06-24 17:00:00+00,2024-06-30 16:59:59+00,[],2024-06-24 03:51:30.33823+00,2024-06-24 08:21:54.272695+00,"",,,4cee432d-37d6-4a1c-a10e-8c458ab14d8e#8f94142f-d085-4598-bcc3-6cdb64e514e6,0170ebdf-f7b9-4e6c-b803-2c1565677699,93446d8c-854b-4512-b1ec-3be394c66390,0,progress,"{""token"": ""26645fb3c631475bbec7d90263184f9c"", ""password"": null, ""expire_in"": null}",[]
85f9b74d-68d9-4622-be94-01d12cdde2fe,0018e2f3-1a03-42cd-87f6-8d4289276ea1,762c994f-b913-4358-9301-860a040881b3,394dff95-a559-4b90-92c2-87998fac7381,QA tester,QA tester,QA tester,"<h2>About the job</h2>

<p><strong>Main Responsibilities for QA Tester: </strong></p>

<p>&nbsp;</p>

<ul>
	<li>Create tests to identify software problems &amp; test cases.</li>
	<li>Executes test cases under varying circumstances</li>
	<li>Documents and evaluates test results</li>
	<li>Detects, logs, and reports program bugs and glitches</li>
	<li>Tracks defects and helps troubleshoot errors</li>
	<li>Recommend improvements in software to enhance user experience</li>
	<li>Partners with engineers to drive QA efforts</li>
	<li>Develop standards and procedures to determine product quality and release readiness</li>
	<li>Identify any potential problems that users might encounter.</li>
</ul>

<p>&nbsp;</p>

<p><strong>Requirements: </strong></p>

<p>&nbsp;</p>

<ul>
	<li>Bachelor&rsquo;s degree in Computer Science, Software Engineering, or related field</li>
	<li>Minimum 1 year of QA testing experience</li>
	<li>Experience in writing clear, concise and comprehensive test plans and test cases ∙</li>
	<li>Experience in Agile frameworks and regression testing desired</li>
	<li>High attention to detail and solid analytical skills</li>
	<li>Proficient in test management software</li>
	<li>A good working knowledge of test management software, programming languages, and QA methodologies.</li>
	<li>Outstanding written and verbal communication skills</li>
	<li>Good team working and critical thinking skills.</li>
</ul>

<p>Link :&nbsp;<a href=""https://www.sala.co/about-us"">https://www.sala.co/about-us</a></p>
",,,,,[],"{""countStudent"": 0, ""countSubject"": 0, ""countTeacher"": 0}",,f,f,t,t,2024-06-22 17:00:00+00,2024-06-30 16:59:59+00,[],2024-06-22 03:58:50.496502+00,2024-06-22 03:58:50.512201+00,"",,,394dff95-a559-4b90-92c2-87998fac7381#85f9b74d-68d9-4622-be94-01d12cdde2fe,0170ebdf-f7b9-4e6c-b803-2c1565677699,77813d4e-efd9-4015-9030-f221c7355ecc,0,progress,,[]
c8d32434-af84-4706-b34d-0d24574002c1,8159031c-e448-45ab-9d17-6c8a23301146,19808703-9a34-4fbe-8434-66621d9a2465,901fb398-0f8b-4cfb-a91b-1d0be0f714f8,New event,New event,New event,"",,,,,[],"{""countStudent"": 0, ""countSubject"": 0, ""countTeacher"": 0}",,f,f,t,t,2024-06-22 17:00:00+00,2024-06-23 16:59:59+00,[],2024-06-22 07:28:31.642994+00,2024-06-22 07:28:31.653354+00,"",,,901fb398-0f8b-4cfb-a91b-1d0be0f714f8#c8d32434-af84-4706-b34d-0d24574002c1,0170ebdf-f7b9-4e6c-b803-2c1565677699,93446d8c-854b-4512-b1ec-3be394c66390,0,progress,,"[""sophorn@sala.co""]"
0f138066-55ac-4062-8832-76fde5ef4cdb,0018e2f3-1a03-42cd-87f6-8d4289276ea1,762c994f-b913-4358-9301-860a040881b3,394dff95-a559-4b90-92c2-87998fac7381,Notification to email,Notification to email,Notification to ,"",,,,,[],"{""countStudent"": 0, ""countSubject"": 0, ""countTeacher"": 0}",,f,f,t,t,2024-06-22 17:00:00+00,2024-06-30 16:59:59+00,[],2024-06-22 08:27:21.719095+00,2024-06-22 08:27:21.738169+00,"",,,394dff95-a559-4b90-92c2-87998fac7381#0f138066-55ac-4062-8832-76fde5ef4cdb,0170ebdf-f7b9-4e6c-b803-2c1565677699,77813d4e-efd9-4015-9030-f221c7355ecc,0,progress,,"[""sophorn@sala.co""]"
2944e594-e57c-4889-8553-c792ec658571,8159031c-e448-45ab-9d17-6c8a23301146,19808703-9a34-4fbe-8434-66621d9a2465,901fb398-0f8b-4cfb-a91b-1d0be0f714f8,pre-registered,pre-registered,pre-registered,"",,,,,[],"{""countStudent"": 0, ""countSubject"": 0, ""countTeacher"": 0}",,f,f,t,t,2024-06-22 17:00:00+00,2024-06-23 16:59:59+00,[],2024-06-22 09:47:30.772678+00,2024-06-22 09:47:30.789853+00,"",,,901fb398-0f8b-4cfb-a91b-1d0be0f714f8#2944e594-e57c-4889-8553-c792ec658571,0170ebdf-f7b9-4e6c-b803-2c1565677699,93446d8c-854b-4512-b1ec-3be394c66390,0,progress,,"[""sophorn@sala.co""]"
aa8cea42-8e15-4655-b30a-d4f237595501,8159031c-e448-45ab-9d17-6c8a23301146,19808703-9a34-4fbe-8434-66621d9a2465,901fb398-0f8b-4cfb-a91b-1d0be0f714f8,Import new applicant,Import new applicant,Import new,"",,,,,[],"{""countStudent"": 0, ""countSubject"": 0, ""countTeacher"": 0}",,f,f,t,t,2024-06-22 17:00:00+00,2024-06-24 16:59:59+00,"[{""key"": """", ""value"": """"}]",2024-06-22 10:58:43.055737+00,2024-06-22 10:58:43.070153+00,"",,,901fb398-0f8b-4cfb-a91b-1d0be0f714f8#aa8cea42-8e15-4655-b30a-d4f237595501,0170ebdf-f7b9-4e6c-b803-2c1565677699,93446d8c-854b-4512-b1ec-3be394c66390,0,progress,,"[""sophorn@sala.co""]"
434c07de-21c5-409e-b9d9-c0148123a9cc,8159031c-e448-45ab-9d17-6c8a23301146,19808703-9a34-4fbe-8434-66621d9a2465,ac38296f-1a41-45a1-8d8a-345e979913ef,Import7,Import7,Import7,"",,,,,[],"{""countStudent"": 0, ""countSubject"": 0, ""countTeacher"": 0}",,f,f,t,t,2024-06-22 17:00:00+00,2024-06-23 16:59:59+00,[],2024-06-22 11:07:00.98044+00,2024-06-22 11:07:00.986127+00,"",,,ac38296f-1a41-45a1-8d8a-345e979913ef#434c07de-21c5-409e-b9d9-c0148123a9cc,0170ebdf-f7b9-4e6c-b803-2c1565677699,93446d8c-854b-4512-b1ec-3be394c66390,0,progress,,[]
42b96c12-4ea4-4329-b372-2e8e5f79e453,b6a00c1d-1dac-4606-b812-f05ba47a7a48,b3a2c4cf-56f6-46df-bace-7f05bd479d30,7a70f340-9e8f-4085-993a-f24f9aeac2a7,Brand and Marketing specialist ,Brand and Marketing specialist ,Brand and Marketing ,"<p><strong>Company Description</strong><br />
&ldquo;To be the most loved everyday food and groceries destination!&rdquo; - that&rsquo;s our mission at foodpanda (small &lsquo;f&rsquo;).</p>

<p>foodpanda is the largest food and grocery delivery platform in Asia, outside of China. Operating in more than 400 cities across 11 markets, we continue to expand and grow in our core food delivery business, as well as in new verticals like grocery deliveries, with a strong tech infrastructure at our core. From our restaurants-partners, cloud kitchens and cloud grocery stores &mdash; foodpanda is just one tap away, getting everything you need into your hands quickly and conveniently!</p>

<p>If you love working with technology to create solutions and are not afraid to roll up your sleeves to get things done, you will find your tribe here at foodpanda. foodpanda comprises of people from more than 60 nationalities, and we believe in winning through diversity.<br />
foodpanda is part of the Delivery Hero Group, the world&rsquo;s leading local delivery platform operating in 70+ countries worldwide</p>

<p><strong>Job Description</strong><br />
<strong>What&#39;s on your menu?</strong></p>

<p>- Work with key business stakeholders, with cross functional departments &amp; HQ brand strategy &amp; media teams to strategize most effective brand communication and media strategy&nbsp;<br />
- Full ownership of ATL channels including (but not limited to) Out of home, influencers, social media, online branding, &nbsp;and other possible effective communication channels, &nbsp;in turning the cities pink! Ensure utmost execution and planning of brand communications and media plan, to drive business KPIs such as customers&rsquo; acquisitions and adoption, as well as brand KPI such as Top of Mind and Brand Love.&nbsp;<br />
- Take ownership of creative campaigns i.e. campaigns concept development, vdo / photo production for all of the brand&rsquo;s media assets and media go to market strategy<br />
- Liaise with management team, &nbsp;regional brand / creative team &amp; external agencies to ensure timely delivery of required assets<br />
- Identify impactful communication channels to successfully communicate brand story, branding campaigns in both online and offline (ATL channels) to maximise long term and short term brand objectives aligned with company&rsquo;s goals<br />
- Lead creative direction for external &amp; internal media with close coordination with internal communications and external agencies<br />
- Keeping up with market trends in advertising media and social media, to successfully drive creative campaigns<br />
Evaluation of creative marketing campaigns to continuously improve ROI</p>

<p><strong>What do you bring to the table?</strong></p>

<p>- 2-3 years experience in branding<br />
- Bachelor&#39;s Degree in Business, Marketing or related areas<br />
- Experience in FMCG, Retail Business, E-Commerce, [Advertising agency]<br />
- Strong planning &amp; communication skills, ability to present ideas and concepts to relevant stakeholders<br />
- Deep knowledge of the production process including storyboarding, shooting, editing and post-production<br />
- You know how to handle processes end to end, influence decision at management level and manage budgets</p>
",,,,,[],"{""countStudent"": 0, ""countSubject"": 0, ""countTeacher"": 0}",,f,f,t,t,2024-05-27 17:00:00+00,2024-06-30 16:59:59+00,[],2024-05-29 04:58:44.848743+00,2024-06-24 10:26:58.549234+00,"",2,,7a70f340-9e8f-4085-993a-f24f9aeac2a7#42b96c12-4ea4-4329-b372-2e8e5f79e453,0170ebdf-f7b9-4e6c-b803-2c1565677699,93446d8c-854b-4512-b1ec-3be394c66390,0,progress,,"[""lysang@sala.co""]"
5b148eb8-605f-4fde-a3d5-4b6cb5e556c3,0018e2f3-1a03-42cd-87f6-8d4289276ea1,762c994f-b913-4358-9301-860a040881b3,394dff95-a559-4b90-92c2-87998fac7381,Customer service,Customer service,Customer service,"<h2>About the job</h2>

<p>K9win is an international Casino and registered over 10years, state in Philippine head office. Recently We are expanding to Cambodia and corporate with many partners with local and international. Currently, we are hiring latent candidates who have knowledge and experience of Marketing Sector.</p>

<p>&nbsp;</p>

<ul>
	<li>Digital Marketing</li>
	<li>Brand Marketing Specialist</li>
</ul>

<p><strong>Role Description</strong></p>

<p>This is a full-time on-site role for a Marketing. The Digital Marketing will be responsible for day-to-day tasks associated with social media marketing, online marketing, web analytics, and communication.</p>

<p>&nbsp;</p>

<p><strong>Qualifications</strong></p>

<ul>
	<li>Social Media Marketing and Digital Marketing skills</li>
	<li>Web Analytics and Online Marketing skills</li>
	<li>Excellent communication skills, both written and verbal</li>
	<li>Experience in the Casino online is an advantage</li>
	<li>Bachelor&#39;s degree in Marketing, Communications, or related field</li>
	<li>Experience in managing digital marketing campaigns</li>
</ul>

<p>Link :&nbsp;<a href=""https://www.sala.co/about-us"">https://www.sala.co/about-us</a></p>

<p>&nbsp;</p>

<p>link:&nbsp;<a href=""https://docs.google.com/spreadsheets/d/1_W1bg7Ly7arxjMmy8WiTrGtb-h7z9NOQb4z002-jpG0/edit#gid=59430735"">https://docs.google.com/spreadsheets/d/1_W1bg7Ly7arxjMmy8WiTrGtb-h7z9NOQb4z002-jpG0/edit#gid=59430735</a></p>
",,,,,[],"{""countStudent"": 0, ""countSubject"": 0, ""countTeacher"": 0}",,f,f,f,t,2024-06-21 17:00:00+00,2024-06-30 16:59:59+00,[],2024-06-22 03:07:20.583549+00,2024-06-22 08:05:03.114983+00,"",,,394dff95-a559-4b90-92c2-87998fac7381#5b148eb8-605f-4fde-a3d5-4b6cb5e556c3,0170ebdf-f7b9-4e6c-b803-2c1565677699,77813d4e-efd9-4015-9030-f221c7355ecc,0,progress,"{""token"": ""65ccf086012c48fcbfd04d77920f638d"", ""password"": null, ""expire_in"": null}","[""sophorn@sala.co""]"
6a65ef97-03bf-4324-ab61-a7751f3295c7,8159031c-e448-45ab-9d17-6c8a23301146,19808703-9a34-4fbe-8434-66621d9a2465,28b1c1e0-cf7c-4b15-ae7e-f127032edaa8,New event,New event,New event,"",,,https://files.staging.sala.tech/share/tFGeEmYAAhZD8A93/filename/2024-06-25_13-20-36.jpg,,[],"{""countStudent"": 0, ""countSubject"": 0, ""countTeacher"": 0}",,f,f,t,t,2024-06-24 17:00:00+00,2024-06-30 16:59:59+00,[],2024-06-25 06:20:44.430538+00,2024-06-25 06:20:44.462801+00,"",,,28b1c1e0-cf7c-4b15-ae7e-f127032edaa8#6a65ef97-03bf-4324-ab61-a7751f3295c7,0170ebdf-f7b9-4e6c-b803-2c1565677699,93446d8c-854b-4512-b1ec-3be394c66390,0,progress,,[]
9c699caa-1e6b-4a89-a7fa-30b379bc5727,8159031c-e448-45ab-9d17-6c8a23301146,19808703-9a34-4fbe-8434-66621d9a2465,ac38296f-1a41-45a1-8d8a-345e979913ef,Import5,Import5,Import5,"",,,,,[],"{""countStudent"": 0, ""countSubject"": 0, ""countTeacher"": 0}",,f,f,t,t,2024-06-22 17:00:00+00,2024-06-23 16:59:59+00,[],2024-06-22 11:02:01.522508+00,2024-06-22 11:02:01.531897+00,"",,,ac38296f-1a41-45a1-8d8a-345e979913ef#9c699caa-1e6b-4a89-a7fa-30b379bc5727,0170ebdf-f7b9-4e6c-b803-2c1565677699,93446d8c-854b-4512-b1ec-3be394c66390,0,progress,,[]
4b674fdf-170f-4dd7-9f4c-bfaeb7314cd7,8159031c-e448-45ab-9d17-6c8a23301146,19808703-9a34-4fbe-8434-66621d9a2465,901fb398-0f8b-4cfb-a91b-1d0be0f714f8,test (copy),test (copy),test (copy),"",,,,,[],"{""countStudent"": 0, ""countSubject"": 0, ""countTeacher"": 0, ""countStudentMale"": 0, ""countStudentFemale"": 0}",,f,f,t,t,2024-06-19 17:00:00+00,2024-06-20 16:59:59+00,[],2024-06-26 02:59:21.05281+00,2024-06-26 02:59:21.085291+00,"",,,901fb398-0f8b-4cfb-a91b-1d0be0f714f8#4b674fdf-170f-4dd7-9f4c-bfaeb7314cd7,0170ebdf-f7b9-4e6c-b803-2c1565677699,93446d8c-854b-4512-b1ec-3be394c66390,0,progress,,
8901d60a-3f19-432a-871d-69f36090216a,b6a00c1d-1dac-4606-b812-f05ba47a7a48,b3a2c4cf-56f6-46df-bace-7f05bd479d30,7a70f340-9e8f-4085-993a-f24f9aeac2a7,Brand and Marketing specialist  (copy),Brand and Marketing specialist  (copy),Brand and Marketing  (copy),"<p><strong>Company Description</strong><br />
&ldquo;To be the most loved everyday food and groceries destination!&rdquo; - that&rsquo;s our mission at foodpanda (small &lsquo;f&rsquo;).</p>

<p>foodpanda is the largest food and grocery delivery platform in Asia, outside of China. Operating in more than 400 cities across 11 markets, we continue to expand and grow in our core food delivery business, as well as in new verticals like grocery deliveries, with a strong tech infrastructure at our core. From our restaurants-partners, cloud kitchens and cloud grocery stores &mdash; foodpanda is just one tap away, getting everything you need into your hands quickly and conveniently!</p>

<p>If you love working with technology to create solutions and are not afraid to roll up your sleeves to get things done, you will find your tribe here at foodpanda. foodpanda comprises of people from more than 60 nationalities, and we believe in winning through diversity.<br />
foodpanda is part of the Delivery Hero Group, the world&rsquo;s leading local delivery platform operating in 70+ countries worldwide</p>

<p><strong>Job Description</strong><br />
<strong>What&#39;s on your menu?</strong></p>

<p>- Work with key business stakeholders, with cross functional departments &amp; HQ brand strategy &amp; media teams to strategize most effective brand communication and media strategy&nbsp;<br />
- Full ownership of ATL channels including (but not limited to) Out of home, influencers, social media, online branding, &nbsp;and other possible effective communication channels, &nbsp;in turning the cities pink! Ensure utmost execution and planning of brand communications and media plan, to drive business KPIs such as customers&rsquo; acquisitions and adoption, as well as brand KPI such as Top of Mind and Brand Love.&nbsp;<br />
- Take ownership of creative campaigns i.e. campaigns concept development, vdo / photo production for all of the brand&rsquo;s media assets and media go to market strategy<br />
- Liaise with management team, &nbsp;regional brand / creative team &amp; external agencies to ensure timely delivery of required assets<br />
- Identify impactful communication channels to successfully communicate brand story, branding campaigns in both online and offline (ATL channels) to maximise long term and short term brand objectives aligned with company&rsquo;s goals<br />
- Lead creative direction for external &amp; internal media with close coordination with internal communications and external agencies<br />
- Keeping up with market trends in advertising media and social media, to successfully drive creative campaigns<br />
Evaluation of creative marketing campaigns to continuously improve ROI</p>

<p><strong>What do you bring to the table?</strong></p>

<p>- 2-3 years experience in branding<br />
- Bachelor&#39;s Degree in Business, Marketing or related areas<br />
- Experience in FMCG, Retail Business, E-Commerce, [Advertising agency]<br />
- Strong planning &amp; communication skills, ability to present ideas and concepts to relevant stakeholders<br />
- Deep knowledge of the production process including storyboarding, shooting, editing and post-production<br />
- You know how to handle processes end to end, influence decision at management level and manage budgets</p>
",,,,,[],"{""countStudent"": 0, ""countSubject"": 0, ""countTeacher"": 0, ""countStudentMale"": 0, ""countStudentFemale"": 0}",,f,f,t,t,2024-05-27 17:00:00+00,2024-06-30 16:59:59+00,[],2024-06-24 10:44:46.472881+00,2024-06-24 10:44:46.501979+00,"",2,,7a70f340-9e8f-4085-993a-f24f9aeac2a7#8901d60a-3f19-432a-871d-69f36090216a,0170ebdf-f7b9-4e6c-b803-2c1565677699,93446d8c-854b-4512-b1ec-3be394c66390,0,progress,,"[""lysang@sala.co""]"
f2c7274d-64a5-4a3b-b466-d2b14b1443db,b6a00c1d-1dac-4606-b812-f05ba47a7a48,faec82a5-1439-4d07-a27d-0e46a6ababb7,,Tech Team job,Tech Team job,Tech Team job,"",,,,,[],"{""countStudent"": 0, ""countSubject"": 0, ""countTeacher"": 0}",,f,f,t,t,,,[],2024-06-27 04:03:45.351671+00,2024-06-27 04:03:45.39013+00,"",,,f2c7274d-64a5-4a3b-b466-d2b14b1443db,0170ebdf-f7b9-4e6c-b803-2c1565677699,93446d8c-854b-4512-b1ec-3be394c66390,0,progress,,[]
96bbe798-1c0f-4fc4-b850-97cf8fc24528,b6a00c1d-1dac-4606-b812-f05ba47a7a48,b3a2c4cf-56f6-46df-bace-7f05bd479d30,f2c7274d-64a5-4a3b-b466-d2b14b1443db,Web developer,Web developer,Web developer,"",,,https://files.staging.sala.tech/share/hTz146ibXY9bHaVO/filename/2024-06-27_11-12-51.jpg,,[],"{""countStudent"": 0, ""countSubject"": 0, ""countTeacher"": 0}",,f,f,t,t,2024-06-26 17:00:00+00,2024-06-30 16:59:59+00,[],2024-06-27 04:13:08.979563+00,2024-06-27 04:13:09.131847+00,"",,,f2c7274d-64a5-4a3b-b466-d2b14b1443db#96bbe798-1c0f-4fc4-b850-97cf8fc24528,0170ebdf-f7b9-4e6c-b803-2c1565677699,93446d8c-854b-4512-b1ec-3be394c66390,0,progress,,"[""sophorn@sala.co""]"
60dd1746-109e-47e4-b869-3999316d8cd8,8159031c-e448-45ab-9d17-6c8a23301146,19808703-9a34-4fbe-8434-66621d9a2465,ac38296f-1a41-45a1-8d8a-345e979913ef,notificaiton pre-register,notificaiton pre-register,notificaiton,"",,,,,[],"{""countStudent"": 0, ""countSubject"": 0, ""countTeacher"": 0}",,f,f,t,t,2024-06-27 17:00:00+00,2024-06-28 16:59:59+00,[],2024-06-27 04:43:20.015996+00,2024-06-27 04:43:20.03985+00,"",,,ac38296f-1a41-45a1-8d8a-345e979913ef#60dd1746-109e-47e4-b869-3999316d8cd8,0170ebdf-f7b9-4e6c-b803-2c1565677699,93446d8c-854b-4512-b1ec-3be394c66390,0,progress,,[]
2e08c21b-b7cc-4b7d-96eb-3fe266a0c893,c54e3b36-2d5a-4196-b58f-a91ff120b693,5442d9da-5c56-43c3-9abb-17b2ffc50263,,Hard Skills,Hard Skills,001,"",,,,,[],"{""countStudent"": 0, ""countSubject"": 0, ""countTeacher"": 0}",,f,f,t,t,,,[],2024-06-27 04:55:08.837784+00,2024-06-27 04:55:38.72927+00,"",,,2e08c21b-b7cc-4b7d-96eb-3fe266a0c893,0170ebdf-f7b9-4e6c-b803-2c1565677699,a63b16fe-eda8-4f23-a214-951b81b9c01c,0,progress,,[]
e10dbf97-cf28-474a-805e-dc371437f521,8159031c-e448-45ab-9d17-6c8a23301146,19808703-9a34-4fbe-8434-66621d9a2465,4cee432d-37d6-4a1c-a10e-8c458ab14d8e,Final exam,Final exam,Final exam,"",,,,,[],"{""countStudent"": 0, ""countSubject"": 0, ""countTeacher"": 0}",,f,f,t,t,2024-06-27 17:00:00+00,2024-06-28 16:59:59+00,[],2024-06-27 05:07:05.916046+00,2024-06-27 05:07:38.879176+00,"",,,4cee432d-37d6-4a1c-a10e-8c458ab14d8e#e10dbf97-cf28-474a-805e-dc371437f521,0170ebdf-f7b9-4e6c-b803-2c1565677699,93446d8c-854b-4512-b1ec-3be394c66390,0,progress,"{""token"": ""09d6f786c9674a65ad0c633c87b57a21"", ""password"": null, ""expire_in"": null}",[]
9a2cd0c0-ae29-4945-9eb9-ff5b70910c1c,8159031c-e448-45ab-9d17-6c8a23301146,21e6d136-3f73-4570-b08a-857297effdc4,,dfdf,afd,df,"<p>fdfd</p>
",,,,,[],"{""countStudent"": 0, ""countSubject"": 0, ""countTeacher"": 0}",,f,f,t,t,,,[],2024-06-27 07:53:30.925804+00,2024-06-27 07:53:30.94326+00,"",12,,9a2cd0c0-ae29-4945-9eb9-ff5b70910c1c,0170ebdf-f7b9-4e6c-b803-2c1565677699,93446d8c-854b-4512-b1ec-3be394c66390,0,progress,,[]
db593612-4907-4d29-8112-78bc5cd5e64d,b6a00c1d-1dac-4606-b812-f05ba47a7a48,b3a2c4cf-56f6-46df-bace-7f05bd479d30,91c3a0db-59b9-4925-a156-90d34d5a0e0f,Test A Job,Test A Job,Test A Job,"<p>Test A Job</p>
",,,https://files.staging.sala.tech/share/2KYsOqJ5ilRFWdZx/filename/2024-06-27_15-28-13.png,,[],"{""countStudent"": 0, ""countSubject"": 0, ""countTeacher"": 0}",,f,f,t,t,2024-06-27 17:00:00+00,2024-06-28 16:59:59+00,[],2024-06-27 08:29:11.867474+00,2024-06-27 08:29:11.873573+00,"",10,,91c3a0db-59b9-4925-a156-90d34d5a0e0f#db593612-4907-4d29-8112-78bc5cd5e64d,0170ebdf-f7b9-4e6c-b803-2c1565677699,93446d8c-854b-4512-b1ec-3be394c66390,0,progress,,"[""tola@elixkh.org""]"
21b82c34-dd06-4de0-b5b3-96bb95e6abf7,8159031c-e448-45ab-9d17-6c8a23301146,19808703-9a34-4fbe-8434-66621d9a2465,aa3d6ef7-a4c6-4935-b580-b09012c3a983,Test a,Test a,Test a,"",,,,,"[""boot""]","{""countStudent"": 0, ""countSubject"": 0, ""countTeacher"": 0}",,f,f,t,t,2024-06-27 17:00:00+00,2025-08-31 16:59:59+00,[],2024-06-27 07:41:57.970319+00,2024-06-28 06:49:31.283628+00,"",,,aa3d6ef7-a4c6-4935-b580-b09012c3a983#21b82c34-dd06-4de0-b5b3-96bb95e6abf7,0170ebdf-f7b9-4e6c-b803-2c1565677699,93446d8c-854b-4512-b1ec-3be394c66390,0,progress,"{""token"": ""3c4dfcfc86f04e2f953ba0aa589da4be"", ""password"": null, ""expire_in"": null}",[]
